{"type": "FeatureCollection", "features": [ {"type": "Feature", "properties": {"norad_id": 66737, "name": "FLOCK 4H-34", "group": "last-30-days", "lat": 36.3838397919739, "lon": 63.56898285611482, "alt_km": 509.2576153521077, "timestamp": "2025-12-23T11:34:46.946321+00:00", "meta": {"OBJECT_NAME": "FLOCK 4H-34", "OBJECT_ID": "2025-276BZ", "EPOCH": "2025-12-23T00:20:52.802592", "MEAN_MOTION": 15.18452906, "ECCENTRICITY": 0.0002632, "INCLINATION": 97.4441, "RA_OF_ASC_NODE": 68.6368, "ARG_OF_PERICENTER": 197.3372, "MEAN_ANOMALY": 162.7773, "EPHEMERIS_TYPE": 0, "CLASSIFICATION_TYPE": "U", "NORAD_CAT_ID": 66737, "ELEMENT_SET_NO": 999, "REV_AT_EPOCH": 293, "BSTAR": 0.008676, "MEAN_MOTION_DOT": 0.00183041, "MEAN_MOTION_DDOT": 0}, "tle": {"line1": "1 66737U 25276BZ  25357.01450003  .00183041  00000+0  86760-2 0  9991", "line2": "2 66737  97.4441  68.6368 0002632 197.3372 162.7773 15.18452906  2930"}}, "geometry": {"type": "Point", "coordinates": [63.56898285611482, 36.3838397919739]}}, {"type": "Feature", "properties": {"norad_id": 66738, "name": "FLOCK 4H-35", "group": "last-30-days", "lat": 44.34899955459711, "lon": 61.748057145685515, "alt_km": 507.76398753695867, "timestamp": "2025-12-23T11:34:46.946330+00:00", "meta": {"OBJECT_NAME": "FLOCK 4H-35", "OBJECT_ID": "2025-276CA", "EPOCH": "2025-12-23T01:53:31.936704", "MEAN_MOTION": 15.18243833, "ECCENTRICITY": 0.0002387, "INCLINATION": 97.4404, "RA_OF_ASC_NODE": 68.6906, "ARG_OF_PERICENTER": 148.106, "MEAN_ANOMALY": 212.0319, "EPHEMERIS_TYPE": 0, "CLASSIFICATION_TYPE": "U", "NORAD_CAT_ID": 66738, "ELEMENT_SET_NO": 999, "REV_AT_EPOCH": 298, "BSTAR": 0.00037983, "MEAN_MOTION_DOT": 7.713e-05, "MEAN_MOTION_DDOT": 0}, "tle": {"line1": "1 66738U 25276CA  25357.07884186  .00007713  00000+0  37983-3 0  9996", "line2": "2 66738  97.4404  68.6906 0002387 148.1060 212.0319 15.18243833  2980"}}, "geometry": {"type": "Point", "coordinates": [61.748057145685515, 44.34899955459711]}}, {"type": "Feature", "properties": {"norad_id": 66739, "name": "FLOCK 4H-36", "group": "last-30-days", "lat": 21.9833324726894, "lon": 66.06903522538376, "alt_km": 513.2915715458676, "timestamp": "2025-12-23T11:34:46.946342+00:00", "meta": {"OBJECT_NAME": "FLOCK 4H-36", "OBJECT_ID": "2025-276CB", "EPOCH": "2025-12-23T01:59:24.128160", "MEAN_MOTION": 15.17996421, "ECCENTRICITY": 0.0002449, "INCLINATION": 97.4451, "RA_OF_ASC_NODE": 68.702, "ARG_OF_PERICENTER": 183.1538, "MEAN_ANOMALY": 176.9681, "EPHEMERIS_TYPE": 0, "CLASSIFICATION_TYPE": "U", "NORAD_CAT_ID": 66739, "ELEMENT_SET_NO": 999, "REV_AT_EPOCH": 369, "BSTAR": 0.00052968, "MEAN_MOTION_DOT": 0.0001071, "MEAN_MOTION_DDOT": 0}, "tle": {"line1": "1 66739U 25276CB  25357.08291815  .00010710  00000+0  52968-3 0  9990", "line2": "2 66739  97.4451  68.7020 0002449 183.1538 176.9681 15.17996421  3695"}}, "geometry": {"type": "Point", "coordinates": [66.06903522538376, 21.9833324726894]}}, {"type": "Feature", "properties": {"norad_id": 66740, "name": "TRANSPORTER-15CC", "group": "last-30-days", "lat": -4.487235584741073, "lon": 69.66184799121271, "alt_km": 517.106886233978, "timestamp": "2025-12-23T11:34:46.946353+00:00", "meta": {"OBJECT_NAME": "TRANSPORTER-15CC", "OBJECT_ID": "2025-276CC", "EPOCH": "2025-12-23T03:41:16.649088", "MEAN_MOTION": 15.17715511, "ECCENTRICITY": 0.0002156, "INCLINATION": 97.4411, "RA_OF_ASC_NODE": 68.751, "ARG_OF_PERICENTER": 237.2728, "MEAN_ANOMALY": 122.8298, "EPHEMERIS_TYPE": 0, "CLASSIFICATION_TYPE": "U", "NORAD_CAT_ID": 66740, "ELEMENT_SET_NO": 999, "REV_AT_EPOCH": 370, "BSTAR": 0.00056975, "MEAN_MOTION_DOT": 0.00011433, "MEAN_MOTION_DDOT": 0}, "tle": {"line1": "1 66740U 25276CC  25357.15366492  .00011433  00000+0  56975-3 0  9999", "line2": "2 66740  97.4411  68.7510 0002156 237.2728 122.8298 15.17715511  3709"}}, "geometry": {"type": "Point", "coordinates": [69.66184799121271, -4.487235584741073]}}, {"type": "Feature", "properties": {"norad_id": 66741, "name": "TRANSPORTER-15CD", "group": "last-30-days", "lat": -9.957146927666718, "lon": 70.37837357429915, "alt_km": 517.7058239203216, "timestamp": "2025-12-23T11:34:46.946362+00:00", "meta": {"OBJECT_NAME": "TRANSPORTER-15CD", "OBJECT_ID": "2025-276CD", "EPOCH": "2025-12-23T03:42:42.094368", "MEAN_MOTION": 15.17617778, "ECCENTRICITY": 0.000102, "INCLINATION": 97.441, "RA_OF_ASC_NODE": 68.7415, "ARG_OF_PERICENTER": 227.7467, "MEAN_ANOMALY": 132.368, "EPHEMERIS_TYPE": 0, "CLASSIFICATION_TYPE": "U", "NORAD_CAT_ID": 66741, "ELEMENT_SET_NO": 999, "REV_AT_EPOCH": 370, "BSTAR": 0.00022717, "MEAN_MOTION_DOT": 4.502e-05, "MEAN_MOTION_DDOT": 0}, "tle": {"line1": "1 66741U 25276CD  25357.15465387  .00004502  00000+0  22717-3 0  9999", "line2": "2 66741  97.4410  68.7415 0001020 227.7467 132.3680 15.17617778  3703"}}, "geometry": {"type": "Point", "coordinates": [70.37837357429915, -9.957146927666718]}}, {"type": "Feature", "properties": {"norad_id": 66742, "name": "TRANSPORTER-15CE", "group": "last-30-days", "lat": -1.4917486227505696, "lon": 69.25996160944742, "alt_km": 517.1509854130918, "timestamp": "2025-12-23T11:34:46.946371+00:00", "meta": {"OBJECT_NAME": "TRANSPORTER-15CE", "OBJECT_ID": "2025-276CE", "EPOCH": "2025-12-23T03:40:28.628832", "MEAN_MOTION": 15.17704611, "ECCENTRICITY": 0.0001639, "INCLINATION": 97.4403, "RA_OF_ASC_NODE": 68.7413, "ARG_OF_PERICENTER": 189.8368, "MEAN_ANOMALY": 170.2833, "EPHEMERIS_TYPE": 0, "CLASSIFICATION_TYPE": "U", "NORAD_CAT_ID": 66742, "ELEMENT_SET_NO": 999, "REV_AT_EPOCH": 370, "BSTAR": 0.00051299, "MEAN_MOTION_DOT": 0.00010283, "MEAN_MOTION_DDOT": 0}, "tle": {"line1": "1 66742U 25276CE  25357.15310913  .00010283  00000+0  51299-3 0  9994", "line2": "2 66742  97.4403  68.7413 0001639 189.8368 170.2833 15.17704611  3702"}}, "geometry": {"type": "Point", "coordinates": [69.25996160944742, -1.4917486227505696]}}, {"type": "Feature", "properties": {"norad_id": 66743, "name": "TRANSPORTER-15CF", "group": "last-30-days", "lat": -23.992229269318656, "lon": 72.38967233899128, "alt_km": 520.8362349810295, "timestamp": "2025-12-23T11:34:46.946380+00:00", "meta": {"OBJECT_NAME": "TRANSPORTER-15CF", "OBJECT_ID": "2025-276CF", "EPOCH": "2025-12-23T03:46:09.717888", "MEAN_MOTION": 15.16749182, "ECCENTRICITY": 0.0001611, "INCLINATION": 97.4401, "RA_OF_ASC_NODE": 68.7361, "ARG_OF_PERICENTER": 34.8823, "MEAN_ANOMALY": 325.2515, "EPHEMERIS_TYPE": 0, "CLASSIFICATION_TYPE": "U", "NORAD_CAT_ID": 66743, "ELEMENT_SET_NO": 999, "REV_AT_EPOCH": 370, "BSTAR": -0.0037799, "MEAN_MOTION_DOT": -0.00073421, "MEAN_MOTION_DDOT": 0}, "tle": {"line1": "1 66743U 25276CF  25357.15705692 -.00073421  00000+0 -37799-2 0  9990", "line2": "2 66743  97.4401  68.7361 0001611  34.8823 325.2515 15.16749182  3708"}}, "geometry": {"type": "Point", "coordinates": [72.38967233899128, -23.992229269318656]}}, {"type": "Feature", "properties": {"norad_id": 66744, "name": "TRANSPORTER-15CG", "group": "last-30-days", "lat": -14.92494158864525, "lon": 71.06505570952555, "alt_km": 517.2326438801192, "timestamp": "2025-12-23T11:34:46.946388+00:00", "meta": {"OBJECT_NAME": "TRANSPORTER-15CG", "OBJECT_ID": "2025-276CG", "EPOCH": "2025-12-23T00:34:56.380224", "MEAN_MOTION": 15.19817649, "ECCENTRICITY": 0.0024572, "INCLINATION": 97.4248, "RA_OF_ASC_NODE": 68.6225, "ARG_OF_PERICENTER": 243.3371, "MEAN_ANOMALY": 116.5347, "EPHEMERIS_TYPE": 0, "CLASSIFICATION_TYPE": "U", "NORAD_CAT_ID": 66744, "ELEMENT_SET_NO": 999, "REV_AT_EPOCH": 368, "BSTAR": -0.035805, "MEAN_MOTION_DOT": -0.00722303, "MEAN_MOTION_DDOT": 0}, "tle": {"line1": "1 66744U 25276CG  25357.02426366 -.00722303  00000+0 -35805-1 0  9990", "line2": "2 66744  97.4248  68.6225 0024572 243.3371 116.5347 15.19817649  3680"}}, "geometry": {"type": "Point", "coordinates": [71.06505570952555, -14.92494158864525]}}, {"type": "Feature", "properties": {"norad_id": 66745, "name": "TRANSPORTER-15CH", "group": "last-30-days", "lat": -22.813657092155694, "lon": 72.21599112041262, "alt_km": 519.2885627162141, "timestamp": "2025-12-23T11:34:46.946397+00:00", "meta": {"OBJECT_NAME": "TRANSPORTER-15CH", "OBJECT_ID": "2025-276CH", "EPOCH": "2025-12-23T00:36:09.002016", "MEAN_MOTION": 15.1742422, "ECCENTRICITY": 0.0001453, "INCLINATION": 97.4414, "RA_OF_ASC_NODE": 68.615, "ARG_OF_PERICENTER": 239.2055, "MEAN_ANOMALY": 120.9036, "EPHEMERIS_TYPE": 0, "CLASSIFICATION_TYPE": "U", "NORAD_CAT_ID": 66745, "ELEMENT_SET_NO": 999, "REV_AT_EPOCH": 368, "BSTAR": 0.00022584, "MEAN_MOTION_DOT": 4.45e-05, "MEAN_MOTION_DDOT": 0}, "tle": {"line1": "1 66745U 25276CH  25357.02510419  .00004450  00000+0  22584-3 0  9990", "line2": "2 66745  97.4414  68.6150 0001453 239.2055 120.9036 15.17424220  3680"}}, "geometry": {"type": "Point", "coordinates": [72.21599112041262, -22.813657092155694]}}, {"type": "Feature", "properties": {"norad_id": 66746, "name": "TRANSPORTER-15CJ", "group": "last-30-days", "lat": -20.522130066367314, "lon": 71.86455753763302, "alt_km": 518.6773296824013, "timestamp": "2025-12-23T11:34:46.946407+00:00", "meta": {"OBJECT_NAME": "TRANSPORTER-15CJ", "OBJECT_ID": "2025-276CJ", "EPOCH": "2025-12-22T10:20:58.283232", "MEAN_MOTION": 15.17466775, "ECCENTRICITY": 0.00025324, "INCLINATION": 97.4408, "RA_OF_ASC_NODE": 68.0277, "ARG_OF_PERICENTER": 254.7861, "MEAN_ANOMALY": 105.3092, "EPHEMERIS_TYPE": 0, "CLASSIFICATION_TYPE": "U", "NORAD_CAT_ID": 66746, "ELEMENT_SET_NO": 999, "REV_AT_EPOCH": 359, "BSTAR": 0.00067533479, "MEAN_MOTION_DOT": 0.00013472, "MEAN_MOTION_DDOT": 0}, "tle": {"line1": "1 66746U 25276CJ  25356.43123013  .00013472  00000+0  67533-3 0  9992", "line2": "2 66746  97.4408  68.0277 0002532 254.7861 105.3092 15.17466775  3594"}}, "geometry": {"type": "Point", "coordinates": [71.86455753763302, -20.522130066367314]}}]}